<?xml version="1.0" encoding="UTF-8"?>
<kml xmlns="http://earth.google.com/kml/2.2">
<Document>
<name>NACIMIENTO_LU — prc_limite_urbano</name>
<Style id="style1">
	<LineStyle>
		<color>ff1aff01</color>
		<width>5</width>
	</LineStyle>
</Style>
<Placemark>
<name>Límite urbano de Nacimiento</name>
<description><![CDATA[<p>
<br/>NOM: Límite urbano de Nacimiento
</p>]]></description>
<ExtendedData>
	<Data name="fid"><displayName>fid</displayName><value><![CDATA[13]]></value></Data>
	<Data name="NOM"><displayName>NOM</displayName><value><![CDATA[Límite urbano de Nacimiento]]></value></Data>
	<Data name="IPT"><displayName>IPT</displayName><value><![CDATA[Plan Regulador Comunal de Nacimiento]]></value></Data>
	<Data name="DO_1"><displayName>DO_1</displayName><value><![CDATA[13/07/2009]]></value></Data>
	<Data name="N_DOC"><displayName>N_DOC</displayName><value><![CDATA[15]]></value></Data>
	<Data name="T_DOC"><displayName>T_DOC</displayName><value><![CDATA[Resolución]]></value></Data>
</ExtendedData>
<styleUrl>#style1</styleUrl>
	<LineString>
		<tessellate>1</tessellate>
		<coordinates>
			-72.63252725565063,-37.52268217148939,0.000
			-72.63235814385976,-37.52283353897689,0.000
			-72.63285780676814,-37.52294495627063,0.000
			-72.63382234511782,-37.523125613004616,0.000
			-72.63433277220807,-37.52321450803306,0.000
			-72.6371445638908,-37.52370415986616,0.000
			-72.64038522034805,-37.5242477574192,0.000
			-72.64329414089599,-37.52474869801162,0.000
			-72.64723081818697,-37.52543782987966,0.000
			-72.6474808274243,-37.5253838171975,0.000
			-72.64831073225461,-37.52527949012706,0.000
			-72.65681138550765,-37.52432260922208,0.000
			-72.6610255790236,-37.523841486944285,0.000
			-72.66234805335394,-37.52365868912473,0.000
			-72.6625408034503,-37.523632044866,0.000
			-72.66282698403329,-37.52359248548555,0.000
			-72.662829797007,-37.523585375094825,0.000
			-72.66307624679425,-37.523545575451436,0.000
			-72.66521225915976,-37.523143566146324,0.000
			-72.66522465865195,-37.522174845448724,0.000
			-72.66573199601308,-37.51783166429581,0.000
			-72.66607849242052,-37.51537532691148,0.000
			-72.66615083136556,-37.51485932989527,0.000
			-72.66645103331913,-37.51271795733661,0.000
			-72.67019625225021,-37.51255798467231,0.000
			-72.67321738577272,-37.51223154382454,0.000
			-72.67445114083618,-37.51206797786209,0.000
			-72.67571622727995,-37.51193321973488,0.000
			-72.67667081834661,-37.51187367483822,0.000
			-72.67896224869965,-37.51161750083317,0.000
			-72.6803209027568,-37.51140826641013,0.000
			-72.68065919843198,-37.51159435636643,0.000
			-72.68149264333525,-37.511961638636286,0.000
			-72.68239961674055,-37.51230278273446,0.000
			-72.68418283246402,-37.512664227425866,0.000
			-72.68424771364263,-37.512614528919705,0.000
			-72.68567182290157,-37.51175962145083,0.000
			-72.68698928141073,-37.51086631827103,0.000
			-72.68813961566612,-37.51007356947802,0.000
			-72.68839588956756,-37.50980932236345,0.000
			-72.68850923314602,-37.50968063980052,0.000
			-72.68893318160562,-37.509327722108175,0.000
			-72.68937044254217,-37.508789659410816,0.000
			-72.6895917101017,-37.50857417541798,0.000
			-72.69000991804258,-37.507953280748346,0.000
			-72.69043588154116,-37.50733810091647,0.000
			-72.69057922977218,-37.50705950432982,0.000
			-72.69071993545508,-37.50672735942597,0.000
			-72.69089606589274,-37.506203419869806,0.000
			-72.69102946103706,-37.50602643638735,0.000
			-72.69111817774993,-37.5057018776485,0.000
			-72.69090524824652,-37.505631074128566,0.000
			-72.69081928340378,-37.50555629668275,0.000
			-72.69049284147215,-37.50515534279653,0.000
			-72.6902222007046,-37.50482414925328,0.000
			-72.6900734010005,-37.50453681557648,0.000
			-72.69009052774454,-37.50442901869776,0.000
			-72.69034910246367,-37.503908459962325,0.000
			-72.69070694942677,-37.50327753429599,0.000
			-72.69334700749306,-37.500239267602176,0.000
			-72.69542527244779,-37.49794553710323,0.000
			-72.69740780583389,-37.49568456709831,0.000
			-72.69709702398893,-37.49514608426612,0.000
			-72.69702818264282,-37.49496351394339,0.000
			-72.69698438432248,-37.49483378953512,0.000
			-72.69706358715622,-37.49477171844326,0.000
			-72.6970588875146,-37.494676522846675,0.000
			-72.69696693107394,-37.49463173231302,0.000
			-72.69692577666856,-37.494555556032886,0.000
			-72.69688462237121,-37.49447937883965,0.000
			-72.69686981300161,-37.49433087065309,0.000
			-72.69686658268972,-37.49426542272974,0.000
			-72.69691327396443,-37.49415073946065,0.000
			-72.69691033807403,-37.49409124234557,0.000
			-72.69684619397238,-37.49400386837159,0.000
			-72.69664852277933,-37.49393855488309,0.000
			-72.69662406614117,-37.49389760772562,0.000
			-72.69667339985776,-37.493836472681004,0.000
			-72.69672843850869,-37.4937394054128,0.000
			-72.69673296901492,-37.49367967364023,0.000
			-72.69655623187597,-37.49358391024775,0.000
			-72.69641318119277,-37.493564555861305,0.000
			-72.69622650197074,-37.49357040490996,0.000
			-72.69612884207886,-37.493561546845555,0.000
			-72.6959989642557,-37.493506026106,0.000
			-72.69593423514827,-37.49340675190539,0.000
			-72.69590055089557,-37.49333034074907,0.000
			-72.6958591038351,-37.493248214231606,0.000
			-72.69574474905485,-37.493204124773094,0.000
			-72.69561122056555,-37.49322618500705,0.000
			-72.69547198759993,-37.493284176331976,0.000
			-72.69533757807488,-37.49328838656467,0.000
			-72.69523845141141,-37.49324977922034,0.000
			-72.69516143132044,-37.49320452006347,0.000
			-72.69510563810972,-37.49313476037406,0.000
			-72.69487692883271,-37.493046580808254,0.000
			-72.69480649578658,-37.492983237230106,0.000
			-72.69474923711249,-37.49288372884826,0.000
			-72.6947678806953,-37.492533950388854,0.000
			-72.6947852006677,-37.49239992752571,0.000
			-72.69470647379657,-37.492259377634504,0.000
			-72.69406340806376,-37.49207929478507,0.000
			-72.69389379939103,-37.49203693346229,0.000
			-72.69403596769938,-37.491765521464174,0.000
			-72.69399308317102,-37.491623848899756,0.000
			-72.69403383050769,-37.491479558760595,0.000
			-72.69386234543407,-37.49139911847299,0.000
			-72.69596896483894,-37.48898769927534,0.000
			-72.697337464347,-37.487381191637944,0.000
			-72.70049203371784,-37.48342089435956,0.000
			-72.69837611122625,-37.47957816684955,0.000
			-72.69748068952752,-37.479615765401704,0.000
			-72.69687570922153,-37.479720531050575,0.000
			-72.69655788333029,-37.47982583224594,0.000
			-72.69629300236252,-37.48003435191646,0.000
			-72.69594356475994,-37.48022644998922,0.000
			-72.69570606584237,-37.48026249242152,0.000
			-72.69538776648338,-37.480358271022176,0.000
			-72.69480270085015,-37.480624485814225,0.000
			-72.69416750351341,-37.48084459585786,0.000
			-72.69374732187586,-37.48105797232977,0.000
			-72.69337820178316,-37.481336488727536,0.000
			-72.6930784088652,-37.48156516234878,0.000
			-72.69281585876584,-37.48182127284269,0.000
			-72.69261444091777,-37.482104072459435,0.000
			-72.69237859340812,-37.48241655237202,0.000
			-72.69193450614328,-37.48263067067599,0.000
			-72.69172673701242,-37.4825418285481,0.000
			-72.69167986273715,-37.4820761117502,0.000
			-72.69166460637352,-37.48152359779928,0.000
			-72.69175639092845,-37.480958200364924,0.000
			-72.69181840545569,-37.48003142791305,0.000
			-72.69195165133371,-37.47957914539486,0.000
			-72.69212354628537,-37.479182858439316,0.000
			-72.69233361971644,-37.47883304845259,0.000
			-72.6925905334691,-37.47846270342208,0.000
			-72.6927680527585,-37.47818065233961,0.000
			-72.68807057524619,-37.47753622269246,0.000
			-72.68772580964077,-37.477823495419855,0.000
			-72.68713393986665,-37.47819476313739,0.000
			-72.68676808620914,-37.478539897279184,0.000
			-72.68635538607727,-37.478905563141495,0.000
			-72.6862902707736,-37.479041078908885,0.000
			-72.68627668217556,-37.47925125922727,0.000
			-72.68625114864575,-37.4794618128937,0.000
			-72.68625559260533,-37.47979537613742,0.000
			-72.68612981261413,-37.479913718080574,0.000
			-72.68595086127604,-37.48016720206862,0.000
			-72.68586278873983,-37.4803225027177,0.000
			-72.68573021249763,-37.48054593426897,0.000
			-72.68558241165415,-37.48070310110481,0.000
			-72.68299127175398,-37.47885806958122,0.000
			-72.68271182010945,-37.479257700392345,0.000
			-72.68188071589208,-37.480361021349076,0.000
			-72.68107114118376,-37.481415993368465,0.000
			-72.6805998157121,-37.482050430773725,0.000
			-72.68014561575794,-37.482302957964016,0.000
			-72.6799982664227,-37.482469638332994,0.000
			-72.67968388378382,-37.4828894219744,0.000
			-72.67922001163772,-37.48335120756487,0.000
			-72.67904196256643,-37.48362372205696,0.000
			-72.67875312523883,-37.48383295068271,0.000
			-72.67859335780895,-37.48399048145294,0.000
			-72.67837572719161,-37.4841879544647,0.000
			-72.67834970273665,-37.48438898798825,0.000
			-72.6781463542589,-37.48463368716929,0.000
			-72.67787973688053,-37.485051976120594,0.000
			-72.6775175467966,-37.48547324384012,0.000
			-72.67701786658266,-37.48577484937993,0.000
			-72.67666574606834,-37.486157663728584,0.000
			-72.67612060670008,-37.48650835274053,0.000
			-72.67606974764585,-37.48669109053486,0.000
			-72.67577995579362,-37.48688127342979,0.000
			-72.67557238907987,-37.48704028947877,0.000
			-72.67538050420386,-37.487275092646506,0.000
			-72.6750977130107,-37.48760807023664,0.000
			-72.67472849061049,-37.487886533583485,0.000
			-72.67422290599293,-37.48831225812146,0.000
			-72.67369062066733,-37.48868160498974,0.000
			-72.67308851350182,-37.48909126175695,0.000
			-72.67247305436238,-37.48947272747292,0.000
			-72.67197425952519,-37.48979335294431,0.000
			-72.67165961801123,-37.48996522999169,0.000
			-72.67115381826203,-37.49014305438077,0.000
			-72.67079913191583,-37.49023036528442,0.000
			-72.67067499374802,-37.49013888414489,0.000
			-72.67035335127694,-37.49016795928118,0.000
			-72.66990233157925,-37.4904870905884,0.000
			-72.66968186087281,-37.490627430262045,0.000
			-72.6693456479918,-37.49084764405199,0.000
			-72.66923130303184,-37.490956078097646,0.000
			-72.6690773863064,-37.490989468792534,0.000
			-72.66894474143025,-37.49121288422844,0.000
			-72.66881798234694,-37.491312170085216,0.000
			-72.66867647653183,-37.49135470885843,0.000
			-72.66849650670675,-37.491589129889796,0.000
			-72.66832288829983,-37.491708940526145,0.000
			-72.66820807544521,-37.491807855112434,0.000
			-72.66792057367734,-37.49204561810864,0.000
			-72.66772492287218,-37.492204251356796,0.000
			-72.667606550139,-37.49247489455951,0.000
			-72.66724286862173,-37.492867575599185,0.000
			-72.66705140950432,-37.493111887437344,0.000
			-72.66673055502292,-37.493646251775445,0.000
			-72.66633677972285,-37.49440217256828,0.000
			-72.6661310345353,-37.49459925384394,0.000
			-72.66607921747037,-37.49476294853188,0.000
			-72.66603112611487,-37.4950028036921,0.000
			-72.66590126089154,-37.49528333701242,0.000
			-72.6658095706563,-37.49561035573164,0.000
			-72.66567847382042,-37.496110217742,0.000
			-72.66559453645407,-37.49635118521738,0.000
			-72.66553419392392,-37.49682978049166,0.000
			-72.66551295990115,-37.49737390084039,0.000
			-72.66535376851219,-37.49778882560293,0.000
			-72.6653208841801,-37.498094947662985,0.000
			-72.66523694308648,-37.49833591559659,0.000
			-72.66527621663161,-37.498649331112674,0.000
			-72.6652334136355,-37.49924179341103,0.000
			-72.66529022839002,-37.49966907631158,0.000
			-72.66288168622371,-37.50058291133986,0.000
			-72.6611071695791,-37.50124819715783,0.000
			-72.65932703525928,-37.501799218415975,0.000
			-72.65681531029433,-37.50256358270027,0.000
			-72.65507454158457,-37.502941700791304,0.000
			-72.65532960276458,-37.503753757119796,0.000
			-72.65549311869606,-37.504406566151204,0.000
			-72.65543582976727,-37.504703908270756,0.000
			-72.65527563858814,-37.50509978257889,0.000
			-72.65516324601768,-37.505494176426645,0.000
			-72.65503299343571,-37.506013071418266,0.000
			-72.65480919664283,-37.506086745645845,0.000
			-72.65465119035689,-37.50628232894483,0.000
			-72.65391181161895,-37.506581732435194,0.000
			-72.65361783485378,-37.50693407753591,0.000
			-72.65346294701308,-37.50694840875487,0.000
			-72.65292518845979,-37.50696506227285,0.000
			-72.65214563936188,-37.50693199262459,0.000
			-72.65156843904803,-37.50712148090405,0.000
			-72.65047783721688,-37.50733639030223,0.000
			-72.64860082594544,-37.50762328639355,0.000
			-72.64750556880051,-37.50774296794067,0.000
			-72.64697893197642,-37.50798807699025,0.000
			-72.64644173136712,-37.50826211407171,0.000
			-72.64599827831944,-37.50849511340982,0.000
			-72.64549130773013,-37.507423855143664,0.000
			-72.64488008640996,-37.507652500381646,0.000
			-72.64471834260951,-37.50777191074218,0.000
			-72.64447711529436,-37.50797958764442,0.000
			-72.64416464880503,-37.50819899859649,0.000
			-72.64377537905541,-37.50831590282721,0.000
			-72.64311587909911,-37.5085364946704,0.000
			-72.6434116491603,-37.50969532976309,0.000
			-72.63872486920629,-37.51262882360567,0.000
			-72.63562959232013,-37.5146978990243,0.000
			-72.63222322152997,-37.517019602699946,0.000
			-72.62969436992498,-37.5189280685084,0.000
			-72.6310979124804,-37.520100513690664,0.000
			-72.63159473702112,-37.52058373413529,0.000
			-72.63215023932568,-37.52104288351502,0.000
			-72.63330306204776,-37.52198775929734,0.000
			-72.63252725565063,-37.52268217148939,0.000
		</coordinates>
	</LineString>
</Placemark>

</Document>
</kml>